[{"OBJECT_NAME":"STARLINK-34254","OBJECT_ID":"2025-111P","EPOCH":"2026-03-09T01:54:09.772992","MEAN_MOTION":15.27589243,"ECCENTRICITY":2.767e-5,"INCLINATION":43.001,"RA_OF_ASC_NODE":81.0062,"ARG_OF_PERICENTER":242.1238,"MEAN_ANOMALY":117.9586,"EPHEMERIS_TYPE":0,"CLASSIFICATION_TYPE":"U","NORAD_CAT_ID":64136,"ELEMENT_SET_NO":999,"REV_AT_EPOCH":4537,"BSTAR":0.001200386,"MEAN_MOTION_DOT":0.00032927,"MEAN_MOTION_DDOT":0},{"OBJECT_NAME":"CZ-6A DEB","OBJECT_ID":"2022-151AJB","EPOCH":"2026-02-27T14:06:27.470880","MEAN_MOTION":15.13235807,"ECCENTRICITY":0.00651829,"INCLINATION":98.7617,"RA_OF_ASC_NODE":191.4844,"ARG_OF_PERICENTER":85.1472,"MEAN_ANOMALY":275.7194,"EPHEMERIS_TYPE":0,"CLASSIFICATION_TYPE":"U","NORAD_CAT_ID":58433,"ELEMENT_SET_NO":999,"REV_AT_EPOCH":15167,"BSTAR":0.0027921214,"MEAN_MOTION_DOT":0.00052525,"MEAN_MOTION_DDOT":0}]
